OBJECT_NAME,OBJECT_ID,EPOCH,MEAN_MOTION,ECCENTRICITY,INCLINATION,RA_OF_ASC_NODE,ARG_OF_PERICENTER,MEAN_ANOMALY,EPHEMERIS_TYPE,CLASSIFICATION_TYPE,NORAD_CAT_ID,ELEMENT_SET_NO,REV_AT_EPOCH,BSTAR,MEAN_MOTION_DOT,MEAN_MOTION_DDOT
LEMUR-2-ROUNDTRIPPER,2025-009DG,2026-07-20T05:23:58.449984,15.04274927,.00044616,97.7241,283.8661,54.9083,305.2560,0,U,62711,999,8259,.30418028E-3,.4172E-4,0
LEMUR-2-MYNAMEISJEFF,2025-009DH,2026-07-20T05:21:50.370624,15.04266521,.00043632,97.7288,284.2656,87.5747,272.5979,0,U,62712,999,8259,.31204872E-3,.4281E-4,0
LEMUR-2-LEIA-PHILIP,2025-052AN,2026-07-20T09:58:41.878272,14.97393706,.00050556,97.6790,92.8024,108.7654,251.4117,0,U,63246,999,7364,.23692086E-4,.218E-5,0
LEMUR-2-LIA-MARTIN,2025-052AQ,2026-07-20T06:35:14.341920,14.98047232,.00049421,97.6850,93.1911,77.4008,282.7767,0,U,63248,999,7363,.13189985E-3,.1501E-4,0
LEMUR-2-DELOITTE-1,2025-052BB,2026-07-20T06:08:17.477376,14.97807195,.00025299,97.6886,93.5026,57.2347,302.9118,0,U,63259,999,7364,.21411742E-3,.2458E-4,0
LEMUR-2-EMERSONROSE,2025-052BD,2026-07-20T06:21:22.752288,14.99315888,.00024327,97.6885,94.1364,47.4222,312.7206,0,U,63261,999,7369,.19231381E-3,.229E-4,0
LEMUR-2-MARACHE-FRAN,2025-052BE,2026-07-20T10:01:12.034560,15.00333801,.00058158,97.6815,94.6586,231.5987,128.4715,0,U,63262,999,7374,.15229593E-3,.1851E-4,0
LEMUR-2-THEFALCONER,2025-052BG,2026-07-20T10:05:40.493184,14.97576224,.00007133,97.6814,93.2494,219.9782,140.1388,0,U,63264,999,7366,.12277603E-3,.1376E-4,0
LEMUR-2-UNTITLED-SC,2025-061A,2026-07-20T08:12:53.383392,15.13665807,.00196839,97.5661,176.4706,145.9773,214.2725,0,U,63351,999,7260,.11339048E-3,.1981E-4,0
LEMUR-2-ESPERANZA,2025-061B,2026-07-20T09:12:02.319552,15.13771778,.00193172,97.5668,176.6129,145.2255,215.0243,0,U,63352,999,7261,.10557222E-3,.1845E-4,0
LEMUR-2-KREMPEL-BRO2,2025-061C,2026-07-20T11:12:24.783264,15.14199792,.00204451,97.5713,177.2716,137.9301,222.3505,0,U,63353,999,7264,.11498157E-3,.2041E-4,0
LEMUR-2-THERMORAPTOR,2025-061D,2026-07-20T09:08:50.663616,15.14282644,.00201541,97.5720,177.2683,137.1817,223.0988,0,U,63354,999,7263,.11313894E-3,.2012E-4,0
LEMUR-2-NEUROSPICY,2025-061E,2026-07-20T08:24:21.596544,15.14401100,.00179144,97.5648,176.8382,140.0523,220.2031,0,U,63355,999,7263,.1137586E-3,.2029E-4,0
LEMUR-2-TILLINFINITY,2025-061F,2026-07-20T08:56:44.123424,15.14986499,.00194118,97.5632,177.1742,129.1130,231.1832,0,U,63356,999,7266,.11672991E-3,.212E-4,0
LEMUR-2-KREMPEL-BRO1,2025-061G,2026-07-20T08:24:38.400480,15.14792561,.00200599,97.5634,177.0588,130.4933,229.8051,0,U,63357,999,7265,.11412172E-3,.206E-4,0
LEMUR-2-LANGER2SPACE,2025-061H,2026-07-20T09:12:24.129504,15.14486134,.0017854,97.5637,176.8924,138.3699,221.8895,0,U,63358,999,7264,.11320082E-3,.2023E-4,0
LEMUR-2-BALTO,2025-052BH,2026-07-20T06:26:20.669856,15.00388723,.00049819,97.6917,94.5064,305.3913,54.6845,0,U,63395,999,7372,.1961893E-3,.2405E-4,0
LEMUR-2-KRISH,2025-135AK,2026-07-20T13:50:11.703840,14.96470751,.00011337,97.7762,316.2325,107.7296,252.4049,0,U,64561,999,5891,.23002603E-3,.2553E-4,0
LEMUR-2-HUBBLE-4,2025-135AP,2026-07-20T07:11:07.678752,14.93693240,.00030517,97.7722,314.8238,150.2214,209.9180,0,U,64565,999,5881,.49997704E-4,.472E-5,0
LEMUR-2-SEJONG-2,2025-135BL,2026-07-20T14:18:05.016960,14.96938504,.00042937,97.7709,316.3973,193.4090,166.7018,0,U,64586,999,5894,.25890851E-3,.2916E-4,0
LEMUR-2-HUBBLE-5,2025-135BT,2026-07-20T13:46:59.132064,14.94220542,.00047443,97.7742,315.7704,213.7886,146.3032,0,U,64840,999,5889,.57563968E-4,.56E-5,0
LEMUR-2-KARENDARRELL,2025-135BU,2026-07-20T14:21:02.431584,15.00543966,.00128825,97.7721,317.7663,88.5015,271.7684,0,U,64841,999,5902,.35725367E-3,.4453E-4,0
LEMUR-2-LUCILLE-ROSE,2025-135BV,2026-07-20T13:42:53.816544,15.00526535,.00154432,97.7696,317.7740,173.0509,187.0932,0,U,65403,999,5364,.32174089E-3,.4005E-4,0
LEMUR-2-AFFIE-WAUWIE,2025-248C,2026-07-20T06:31:10.706016,15.28387854,.00092673,45.3906,295.5651,278.2221,81.7618,0,U,66295,999,3965,.45736339E-3,.12608E-3,0
LEMUR-2-FINNIAN,2025-276DX,2026-07-19T18:08:46.805856,15.00644953,.00070806,97.5356,270.7347,342.5290,17.5690,0,U,66782,999,2488,.10688527E-3,.1294E-4,0
